{"type": "FeatureCollection", "features": [ {"type": "Feature", "properties": {"norad_id": 66395, "name": "STARLINK-35681", "group": "last-30-days", "lat": -38.793970593068096, "lon": -89.83958712975034, "alt_km": 423.6544720833381, "timestamp": "2025-12-03T15:48:01.918598+00:00", "meta": {"OBJECT_NAME": "STARLINK-35681", "OBJECT_ID": "2025-257R", "EPOCH": "2025-12-03T06:44:00.745152", "MEAN_MOTION": 15.49333045, "ECCENTRICITY": 0.00015276, "INCLINATION": 53.1587, "RA_OF_ASC_NODE": 309.0303, "ARG_OF_PERICENTER": 94.4396, "MEAN_ANOMALY": 265.6788, "EPHEMERIS_TYPE": 0, "CLASSIFICATION_TYPE": "U", "NORAD_CAT_ID": 66395, "ELEMENT_SET_NO": 999, "REV_AT_EPOCH": 484, "BSTAR": 0.0017110542, "MEAN_MOTION_DOT": 0.00095972, "MEAN_MOTION_DDOT": 0}, "tle": {"line1": "1 66395U 25257R   25337.28056418  .00095972  00000+0  17111-2 0  9998", "line2": "2 66395  53.1587 309.0303 0001527  94.4396 265.6788 15.49333045  4843"}}, "geometry": {"type": "Point", "coordinates": [-89.83958712975034, -38.793970593068096]}}, {"type": "Feature", "properties": {"norad_id": 66396, "name": "STARLINK-35669", "group": "last-30-days", "lat": -37.56176572331148, "lon": -87.99278562303245, "alt_km": 423.6223920010689, "timestamp": "2025-12-03T15:48:01.918606+00:00", "meta": {"OBJECT_NAME": "STARLINK-35669", "OBJECT_ID": "2025-257S", "EPOCH": "2025-12-03T06:43:30.988992", "MEAN_MOTION": 15.49330673, "ECCENTRICITY": 0.00014407, "INCLINATION": 53.1586, "RA_OF_ASC_NODE": 309.0274, "ARG_OF_PERICENTER": 99.4251, "MEAN_ANOMALY": 260.6921, "EPHEMERIS_TYPE": 0, "CLASSIFICATION_TYPE": "U", "NORAD_CAT_ID": 66396, "ELEMENT_SET_NO": 999, "REV_AT_EPOCH": 491, "BSTAR": 0.0013802154, "MEAN_MOTION_DOT": 0.00077135, "MEAN_MOTION_DDOT": 0}, "tle": {"line1": "1 66396U 25257S   25337.28021978  .00077135  00000+0  13802-2 0  9996", "line2": "2 66396  53.1586 309.0274 0001440  99.4251 260.6921 15.49330673  4915"}}, "geometry": {"type": "Point", "coordinates": [-87.99278562303245, -37.56176572331148]}}, {"type": "Feature", "properties": {"norad_id": 66397, "name": "STARLINK-35510", "group": "last-30-days", "lat": -36.26398690173269, "lon": -86.15382698616679, "alt_km": 423.130022515541, "timestamp": "2025-12-03T15:48:01.918617+00:00", "meta": {"OBJECT_NAME": "STARLINK-35510", "OBJECT_ID": "2025-257T", "EPOCH": "2025-12-03T06:43:01.221600", "MEAN_MOTION": 15.49349259, "ECCENTRICITY": 0.00011294, "INCLINATION": 53.1585, "RA_OF_ASC_NODE": 309.0257, "ARG_OF_PERICENTER": 89.2452, "MEAN_ANOMALY": 270.8687, "EPHEMERIS_TYPE": 0, "CLASSIFICATION_TYPE": "U", "NORAD_CAT_ID": 66397, "ELEMENT_SET_NO": 999, "REV_AT_EPOCH": 491, "BSTAR": 0.0021199502, "MEAN_MOTION_DOT": 0.00119443, "MEAN_MOTION_DDOT": 0}, "tle": {"line1": "1 66397U 25257T   25337.27987525  .00119443  00000+0  21200-2 0  9995", "line2": "2 66397  53.1585 309.0257 0001129  89.2452 270.8687 15.49349259  4912"}}, "geometry": {"type": "Point", "coordinates": [-86.15382698616679, -36.26398690173269]}}, {"type": "Feature", "properties": {"norad_id": 66398, "name": "STARLINK-35642", "group": "last-30-days", "lat": -35.00806657586094, "lon": -84.4670444849523, "alt_km": 423.35528795249866, "timestamp": "2025-12-03T15:48:01.918626+00:00", "meta": {"OBJECT_NAME": "STARLINK-35642", "OBJECT_ID": "2025-257U", "EPOCH": "2025-12-03T06:42:31.631328", "MEAN_MOTION": 15.49329756, "ECCENTRICITY": 0.00012816, "INCLINATION": 53.1587, "RA_OF_ASC_NODE": 309.0228, "ARG_OF_PERICENTER": 97.3453, "MEAN_ANOMALY": 262.7702, "EPHEMERIS_TYPE": 0, "CLASSIFICATION_TYPE": "U", "NORAD_CAT_ID": 66398, "ELEMENT_SET_NO": 999, "REV_AT_EPOCH": 491, "BSTAR": 0.0013505496, "MEAN_MOTION_DOT": 0.00075448, "MEAN_MOTION_DDOT": 0}, "tle": {"line1": "1 66398U 25257U   25337.27953277  .00075448  00000+0  13505-2 0  9998", "line2": "2 66398  53.1587 309.0228 0001281  97.3453 262.7702 15.49329756  4911"}}, "geometry": {"type": "Point", "coordinates": [-84.4670444849523, -35.00806657586094]}}, {"type": "Feature", "properties": {"norad_id": 66399, "name": "STARLINK-35657", "group": "last-30-days", "lat": -33.69058381247052, "lon": -82.78271684636483, "alt_km": 423.28441440735696, "timestamp": "2025-12-03T15:48:01.918637+00:00", "meta": {"OBJECT_NAME": "STARLINK-35657", "OBJECT_ID": "2025-257V", "EPOCH": "2025-12-03T06:42:01.952928", "MEAN_MOTION": 15.49330447, "ECCENTRICITY": 0.00013107, "INCLINATION": 53.1589, "RA_OF_ASC_NODE": 309.0206, "ARG_OF_PERICENTER": 98.9847, "MEAN_ANOMALY": 261.1311, "EPHEMERIS_TYPE": 0, "CLASSIFICATION_TYPE": "U", "NORAD_CAT_ID": 66399, "ELEMENT_SET_NO": 999, "REV_AT_EPOCH": 491, "BSTAR": 0.0014262294, "MEAN_MOTION_DOT": 0.00079747, "MEAN_MOTION_DDOT": 0}, "tle": {"line1": "1 66399U 25257V   25337.27918927  .00079747  00000+0  14262-2 0  9999", "line2": "2 66399  53.1589 309.0206 0001310  98.9847 261.1311 15.49330447  4915"}}, "geometry": {"type": "Point", "coordinates": [-82.78271684636483, -33.69058381247052]}}, {"type": "Feature", "properties": {"norad_id": 66400, "name": "STARLINK-35667", "group": "last-30-days", "lat": -30.99703597680012, "lon": -79.57386090847355, "alt_km": 423.0161147103827, "timestamp": "2025-12-03T15:48:01.918646+00:00", "meta": {"OBJECT_NAME": "STARLINK-35667", "OBJECT_ID": "2025-257W", "EPOCH": "2025-12-03T06:41:02.697216", "MEAN_MOTION": 15.49331241, "ECCENTRICITY": 0.00015384, "INCLINATION": 53.1589, "RA_OF_ASC_NODE": 309.0152, "ARG_OF_PERICENTER": 86.2161, "MEAN_ANOMALY": 273.9024, "EPHEMERIS_TYPE": 0, "CLASSIFICATION_TYPE": "U", "NORAD_CAT_ID": 66400, "ELEMENT_SET_NO": 999, "REV_AT_EPOCH": 491, "BSTAR": 0.0015848169, "MEAN_MOTION_DOT": 0.0008877, "MEAN_MOTION_DDOT": 0}, "tle": {"line1": "1 66400U 25257W   25337.27850344  .00088770  00000+0  15848-2 0  9997", "line2": "2 66400  53.1589 309.0152 0001538  86.2161 273.9024 15.49331241  4914"}}, "geometry": {"type": "Point", "coordinates": [-79.57386090847355, -30.99703597680012]}}, {"type": "Feature", "properties": {"norad_id": 66401, "name": "STARLINK-35668", "group": "last-30-days", "lat": -29.615482412174323, "lon": -78.03114116065272, "alt_km": 422.6896473534898, "timestamp": "2025-12-03T15:48:01.918655+00:00", "meta": {"OBJECT_NAME": "STARLINK-35668", "OBJECT_ID": "2025-257X", "EPOCH": "2025-12-03T06:40:32.871936", "MEAN_MOTION": 15.49327237, "ECCENTRICITY": 0.0001059, "INCLINATION": 53.159, "RA_OF_ASC_NODE": 309.0131, "ARG_OF_PERICENTER": 84.5963, "MEAN_ANOMALY": 275.5167, "EPHEMERIS_TYPE": 0, "CLASSIFICATION_TYPE": "U", "NORAD_CAT_ID": 66401, "ELEMENT_SET_NO": 999, "REV_AT_EPOCH": 491, "BSTAR": 0.0017157705, "MEAN_MOTION_DOT": 0.00096221, "MEAN_MOTION_DDOT": 0}, "tle": {"line1": "1 66401U 25257X   25337.27815824  .00096221  00000+0  17158-2 0  9998", "line2": "2 66401  53.1590 309.0131 0001059  84.5963 275.5167 15.49327237  4919"}}, "geometry": {"type": "Point", "coordinates": [-78.03114116065272, -29.615482412174323]}}, {"type": "Feature", "properties": {"norad_id": 66402, "name": "STARLINK-35644", "group": "last-30-days", "lat": -32.35450559343843, "lon": -81.15501402048486, "alt_km": 423.03998886912905, "timestamp": "2025-12-03T15:48:01.918663+00:00", "meta": {"OBJECT_NAME": "STARLINK-35644", "OBJECT_ID": "2025-257Y", "EPOCH": "2025-12-03T06:41:32.314272", "MEAN_MOTION": 15.4932973, "ECCENTRICITY": 0.00012954, "INCLINATION": 53.1589, "RA_OF_ASC_NODE": 309.0178, "ARG_OF_PERICENTER": 87.1391, "MEAN_ANOMALY": 272.9766, "EPHEMERIS_TYPE": 0, "CLASSIFICATION_TYPE": "U", "NORAD_CAT_ID": 66402, "ELEMENT_SET_NO": 999, "REV_AT_EPOCH": 491, "BSTAR": 0.0015595369, "MEAN_MOTION_DOT": 0.00087326, "MEAN_MOTION_DDOT": 0}, "tle": {"line1": "1 66402U 25257Y   25337.27884623  .00087326  00000+0  15595-2 0  9991", "line2": "2 66402  53.1589 309.0178 0001295  87.1391 272.9766 15.49329730  4911"}}, "geometry": {"type": "Point", "coordinates": [-81.15501402048486, -32.35450559343843]}}, {"type": "Feature", "properties": {"norad_id": 66403, "name": "STARLINK-35602", "group": "last-30-days", "lat": -28.228516182922238, "lon": -76.54376317318774, "alt_km": 422.92730836051214, "timestamp": "2025-12-03T15:48:01.918682+00:00", "meta": {"OBJECT_NAME": "STARLINK-35602", "OBJECT_ID": "2025-257Z", "EPOCH": "2025-12-03T06:40:03.261792", "MEAN_MOTION": 15.49328881, "ECCENTRICITY": 0.00014692, "INCLINATION": 53.1587, "RA_OF_ASC_NODE": 309.0108, "ARG_OF_PERICENTER": 96.1322, "MEAN_ANOMALY": 263.9855, "EPHEMERIS_TYPE": 0, "CLASSIFICATION_TYPE": "U", "NORAD_CAT_ID": 66403, "ELEMENT_SET_NO": 999, "REV_AT_EPOCH": 491, "BSTAR": 0.0013365457, "MEAN_MOTION_DOT": 0.00074651, "MEAN_MOTION_DDOT": 0}, "tle": {"line1": "1 66403U 25257Z   25337.27781553  .00074651  00000+0  13365-2 0  9990", "line2": "2 66403  53.1587 309.0108 0001469  96.1322 263.9855 15.49328881  4915"}}, "geometry": {"type": "Point", "coordinates": [-76.54376317318774, -28.228516182922238]}}, {"type": "Feature", "properties": {"norad_id": 66404, "name": "STARLINK-35691", "group": "last-30-days", "lat": -26.81001680454508, "lon": -75.07908171724056, "alt_km": 422.6980801679447, "timestamp": "2025-12-03T15:48:01.918691+00:00", "meta": {"OBJECT_NAME": "STARLINK-35691", "OBJECT_ID": "2025-257AA", "EPOCH": "2025-12-03T06:39:33.585984", "MEAN_MOTION": 15.49331954, "ECCENTRICITY": 0.00013141, "INCLINATION": 53.1588, "RA_OF_ASC_NODE": 309.0079, "ARG_OF_PERICENTER": 96.6456, "MEAN_ANOMALY": 263.4703, "EPHEMERIS_TYPE": 0, "CLASSIFICATION_TYPE": "U", "NORAD_CAT_ID": 66404, "ELEMENT_SET_NO": 999, "REV_AT_EPOCH": 491, "BSTAR": 0.0015970494, "MEAN_MOTION_DOT": 0.00089469, "MEAN_MOTION_DDOT": 0}, "tle": {"line1": "1 66404U 25257AA  25337.27747206  .00089469  00000+0  15970-2 0  9995", "line2": "2 66404  53.1588 309.0079 0001314  96.6456 263.4703 15.49331954  4918"}}, "geometry": {"type": "Point", "coordinates": [-75.07908171724056, -26.81001680454508]}}]}